TDRS 3                  
1 19548U 88091B   16329.19458544 -.00000306  00000-0  00000+0 0  9993
2 19548  14.8595  10.2947 0037455 302.5396 118.4405  1.00279546 90350
SKYNET 4C               
1 20776U 90079A   16326.78715574  .00000117  00000-0  00000-0 0  9998
2 20776  13.7271  18.2113 0003433 236.0845 123.8549  1.00270453 95886
TDRS 5                  
1 21639U 91054B   16328.46281936  .00000080  00000-0  00000+0 0  9996
2 21639  14.2341  23.6209 0022054 328.0837  70.0776  1.00275921 92683
TDRS 6                  
1 22314U 93003B   16329.09333942 -.00000297  00000-0  00000+0 0  9999
2 22314  13.7454  26.5073 0007874 261.9378 122.8125  1.00274436 87365
INTELSAT 701 (IS-701)   
1 22871U 93066A   16327.95952067 -.00000224  00000-0  00000+0 0  9994
2 22871   3.8054  68.0859 0005177 183.9024 126.3413  1.00271220 84327
OPTUS B3                
1 23227U 94055A   16329.19651791 -.00000085  00000-0  00000+0 0  9992
2 23227   7.0740  51.6704 0006687 204.2055  42.6757  1.00272762 81427
ASTRA 1D                
1 23331U 94070A   16328.64529523 -.00000292  00000-0  00000+0 0  9991
2 23331   7.2481  50.8007 0003817 195.9339   1.3253  1.00270676 81141
BRASILSAT B2            
1 23536U 95016A   16329.03574455 -.00000282  00000-0  00000+0 0  9996
2 23536   6.8735  52.6386 0002600 218.7636  96.8885  1.00270793 79291
AMSC 1                  
1 23553U 95019A   16328.22865207 -.00000121  00000-0  00000+0 0  9998
2 23553   9.8181  41.7279 0006727 192.6942 167.2069  1.00273413 79145
TDRS 7                  
1 23613U 95035B   16328.83807262 -.00000207  00000-0  00000+0 0  9992
2 23613  14.8904  17.3283 0017956  18.7711  53.5866  1.00276864 78136
ECHOSTAR 1              
1 23754U 95073A   16328.16918608 -.00000249  00000-0  00000+0 0  9999
2 23754   0.3798  90.9883 0002915 168.5534 146.7069  1.00271800 76427
INMARSAT 3-F1           
1 23839U 96020A   16328.65842507  .00000003  00000-0  00000+0 0  9991
2 23839   3.5939  68.4305 0006402 180.0019 116.1425  1.00270802 75599
ASTRA 1F                
1 23842U 96021A   16328.74667453  .00000132  00000-0  00000+0 0  9994
2 23842   0.0392 339.5178 0003625 265.5687 131.1369  1.00272333 75317
MSAT M1                 
1 23846U 96022A   16328.26414080 -.00000089  00000-0  00000+0 0  9994
2 23846   7.4375  50.3616 0005976 198.3123 161.5431  1.00271707 75419
PALAPA C2               
1 23864U 96030A   16328.91013626  .00000018  00000-0  00000+0 0  9997
2 23864   5.4085  60.0059 0004141 106.1419 262.9441  0.99001984 75166
INMARSAT 3-F2           
1 24307U 96053A   16328.18105840 -.00000131  00000-0  00000+0 0  9991
2 24307   2.2087  78.6943 0007452 173.5790 219.9978  1.00271189 74009
AMC-1 (GE-1)            
1 24315U 96054A   16328.42162929  .00000052  00000-0  00000+0 0  9990
2 24315   1.1413  85.9955 0003153 169.6236 189.8434  1.00272486 74001
AFRICASAT-2 (MEASAT-2)  
1 24653U 96063B   16328.54299075 -.00000231  00000-0  00000+0 0  9991
2 24653   7.1666  51.2305 0012129 180.7362 174.4635  1.00272295 73329
EUTELSAT 48A            
1 24665U 96067A   16328.90757933  .00000110  00000-0  00000+0 0  9995
2 24665   6.0169  56.4746 0006299 200.5951 181.2147  1.00276012 73662
INMARSAT 3-F3           
1 24674U 96070A   16328.40494147  .00000031  00000-0  00000+0 0  9991
2 24674   3.0285  72.7320 0005920 175.0669 138.8778  1.00272669 72941
AMC-2 (GE-2)            
1 24713U 97002A   16328.57792715 -.00000216  00000-0  00000+0 0  9997
2 24713   3.9565  67.0140 0004847 173.6384 305.5519  1.00271511 23304
INTELSAT 26 (IS-26)     
1 24732U 97007A   16326.99359046 -.00000005  00000-0  00000+0 0  9999
2 24732   7.1387  51.5482 0005803 195.9504 235.8687  1.00271770 72249
GALAXY 25 (G-25)        
1 24812U 97026A   16328.08489046 -.00000171  00000-0  00000+0 0  9999
2 24812   0.0167 320.0331 0003482 277.5458 122.4059  1.00272577 71338
ABS-3                   
1 24901U 97042A   16328.75109470 -.00000198  00000-0  00000+0 0  9999
2 24901   4.5125  64.4318 0006702 209.2037 145.4768  1.00271413 70505
INTELSAT 5 (IS-5)       
1 24916U 97046A   16328.58838149 -.00000146  00000-0  00000+0 0  9995
2 24916   3.1452  72.0870 0004826 181.0245 178.7024  1.00271757 70594
METEOSAT-7              
1 24932U 97049B   16327.77520888  .00000041  00000-0  00000-0 0  9998
2 24932  10.4065  39.1301 0001632 243.9344 115.9771  1.00274812 70380
AMC-3 (GE-3)            
1 24936U 97050A   16328.92403821 -.00000279  00000-0  00000+0 0  9992
2 24936   0.0092 319.0118 0002920 287.7162  82.2501  1.00270953 70424
NSS-5                   
1 24957U 97053A   16328.80928031  .00000104  00000-0  00000+0 0  9996
2 24957   3.4434  70.3113 0003578 181.7194 153.0029  1.00271188 70214
ECHOSTAR 3              
1 25004U 97059A   16329.21897565 -.00000287  00000-0  00000+0 0  9992
2 25004   1.7334  81.0558 0001071 135.0130 224.5683  1.00274221 70130
JCSAT-1B                
1 25067U 97075A   16327.83677720 -.00000213  00000-0  00000+0 0  9993
2 25067   5.2010  60.1388 0009174 196.5491 256.8048  1.00271931 69521
ASTRA 1G                
1 25071U 97076A   16327.59134418  .00000015  00000-0  00000-0 0  9994
2 25071   1.9032  79.0483 0003679 172.0031  86.6543  1.00274026 69528
BRASILSAT B3            
1 25152U 98006A   16328.25523498 -.00000230  00000-0  00000+0 0  9991
2 25152   3.6366  69.3882 0001110  66.2549 293.5163  1.00417267 68890
INMARSAT 3-F5           
1 25153U 98006B   16329.18549372 -.00000291  00000-0  00000+0 0  9991
2 25153   2.1693  74.4334 0005102 174.9779 186.9848  1.00270180 68878
NSS-806                 
1 25239U 98014A   16328.64997784 -.00000286  00000-0  00000+0 0  9993
2 25239   0.0732 321.5086 0004518 285.7627   2.2738  1.00268999 68634
CHINASAT 5A (ZX 5A)     
1 25354U 98033A   16328.87454654 -.00000088  00000-0  00000+0 0  9991
2 25354   0.8137  88.1691 0005235 158.9276 294.0962  1.00273405 72223
THOR III                
1 25358U 98035A   16328.00560083 -.00000049  00000-0  00000+0 0  9993
2 25358   5.0698  60.3754 0002560 195.2102 164.5989  1.00273571 67686
INTELSAT 805 (IS-805)   
1 25371U 98037A   16328.45535566 -.00000038  00000-0  00000+0 0  9995
2 25371   0.0152 304.8650 0002856 311.2423 139.6821  1.00271385 67540
ASTRA 2A                
1 25462U 98050A   16327.70515828 -.00000368  00000-0  00000+0 0  9993
2 25462   0.0740 258.0539 0002320   2.1884 169.2306  1.00267459 66715
AFRISTAR                
1 25515U 98063A   16328.10301774  .00000117  00000-0  00000+0 0  9995
2 25515   2.9011  70.2423 0004396 171.1711 239.1772  1.00270731 66107
INTELSAT 8 (IS-8)       
1 25522U 98065A   16328.75257600 -.00000038  00000-0  00000+0 0  9997
2 25522   0.5902  89.0757 0002805 166.6447 247.2565  1.00272785 66105
JCSAT-4A                
1 25630U 99006A   16328.86109166 -.00000161  00000-0  00000+0 0  9995
2 25630   1.8747  80.9854 0001633 153.5695 220.6355  1.00272854 64974
SKYNET 4E               
1 25639U 99009B   16324.95887078  .00000012  00000-0  00000-0 0  9993
2 25639   9.9405  30.2414 0003119 207.9073 172.4748  1.00275298 16341
ASIASAT 3S              
1 25657U 99013A   16328.66419785 -.00000270  00000-0  00000+0 0  9992
2 25657   2.0920  79.2298 0000778 202.6544 168.6402  0.99995044 64806
NIMIQ 1                 
1 25740U 99027A   16328.39252103 -.00000206  00000-0  00000+0 0  9998
2 25740   0.0309 289.0460 0005318 346.6963 201.8651  1.00272012 64182
ASTRA 1H                
1 25785U 99033A   16328.85668765  .00000074  00000-0  00000+0 0  9992
2 25785   3.4271  70.4677 0003019 178.2463 178.2929  1.00274482 63769
TELKOM 1                
1 25880U 99042A   16328.76021647 -.00000350  00000-0  00000+0 0  9998
2 25880   0.0199 101.9073 0001529 206.8620 136.0447  1.00266270 63330
ABS-7                   
1 25894U 99046A   16328.95104130 -.00000368  00000-0  00000+0 0  9996
2 25894   0.0054 112.5962 0000872 164.2141 245.0388  1.00270704 62123
ABS-6                   
1 25924U 99053A   16328.38381407 -.00000126  00000-0  00000+0 0  9991
2 25924   0.0324 314.3066 0001804 261.5574 144.1240  1.00275301 62855
TELSTAR 12 (ORION 2)    
1 25949U 99059A   16329.20858273 -.00000067  00000-0  00000+0 0  9990
2 25949   0.5047  89.1412 0003554 175.6151 124.7452  1.00272153 62515
AMC-4 (GE-4)            
1 25954U 99060A   16328.39296316 -.00000280  00000-0  00000+0 0  9998
2 25954   0.0617  90.2607 0000640 305.4053 101.5914  1.00264711 62466
GALAXY 11 (G-11)        
1 26038U 99071A   16328.77027311  .00000130  00000-0  00000+0 0  9996
2 26038   0.0217  48.0586 0000892 264.3840  73.0393  1.00272441 62091
HISPASAT 1C             
1 26071U 00007A   16328.60282046 -.00000219  00000-0  00000+0 0  9993
2 26071   0.1416  81.7445 0004301 203.0231 271.3894  1.00270339 61611
SUPERBIRD-B2            
1 26095U 00012A   16328.87454654 -.00000099  00000-0  00000+0 0  9996
2 26095   0.0097 292.0201 0002156 327.0065 281.1016  1.00269573 61417
ASIASTAR                
1 26107U 00016A   16328.89927961 -.00000338  00000-0  00000+0 0  9998
2 26107   1.2532  81.9741 0003836 158.5337 251.5464  1.00275530 61134
EUTELSAT 16C            
1 26243U 00019A   16328.80073294  .00000087  00000-0  00000+0 0  9994
2 26243   3.8820  67.3146 0003514 191.5213 107.1686  1.00274869 60767
EUTELSAT 36A            
1 26369U 00028A   16328.80050157 -.00000223  00000-0  00000+0 0  9999
2 26369   0.5890  83.4871 0005383 176.9602 179.4696  1.00271706 60463
TDRS 8                  
1 26388U 00034A   16327.73888193 -.00000237  00000-0  00000+0 0  9992
2 26388   7.1435  57.6298 0009474 190.6357 169.2148  1.00271448 60140
ECHOSTAR 6              
1 26402U 00038A   16327.34321286 -.00000156  00000-0  00000+0 0  9995
2 26402   3.7928  68.1592 0003763 182.2865 198.6820  1.00271744 59887
INTELSAT 9 (IS-9)       
1 26451U 00043A   16328.35099519 -.00000277  00000-0  00000+0 0  9992
2 26451   3.1315  72.3152 0003886 188.9836 244.7331  1.00272203 59826
